     2.100          NAVIGATION                              RINEX VERSION / TYPE
fic2rin                                 04/22/2016 00:04:15 PGM / RUN BY / DATE
                                                            END OF HEADER
32 16  4 21 18  0  0.0  .343518331647D-05 -.375166564481D-11  .000000000000D+00
     .670000000000D+02  .902187500000D+02  .449911597767D-08  .424761277926D-01
     .465661287308D-05  .209080986679D-03  .933557748795D-05  .515359593201D+04
     .410400000000D+06 -.204890966415D-07  .548016257385D+00 -.409781932831D-07
     .960255355930D+00  .201062500000D+03 -.235630249743D+01 -.802140555231D-08
     .372515516767D-09  .100000000000D+01  .189300000000D+04  .000000000000D+00
     .240000000000D+01  .000000000000D+00  .465661287308D-09  .670000000000D+02
     .403206000000D+06  .400000000000D+01
 1 16  4 21 20  0  0.0  .180322676897D-04  .113686837722D-11  .000000000000D+00
     .920000000000D+02 -.875000000000D+00  .474126892145D-08 -.133736506031D+01
    -.316649675369D-07  .531790056266D-02  .397674739361D-05  .515363980103D+04
     .417600000000D+06  .100582838058D-06 -.153419301049D+01 -.122934579849D-06
     .963699136772D+00  .305968750000D+03  .451571807447D+00 -.822534261854D-08
    -.607168148133D-10  .100000000000D+01  .189300000000D+04  .000000000000D+00
     .240000000000D+01  .000000000000D+00  .512227416039D-08  .920000000000D+02
     .410406000000D+06  .400000000000D+01
 2 16  4 21 20  0  0.0  .595907680690D-03 -.193267624127D-11  .000000000000D+00
     .630000000000D+02  .581250000000D+01  .545308428571D-08 -.954290529825D+00
     .519677996635D-06  .156373137143D-01  .366009771824D-05  .515375190163D+04
     .417600000000D+06  .135973095894D-06 -.157895833004D+01  .339001417160D-06
     .942461748743D+00  .300312500000D+03 -.212849390685D+01 -.875893627342D-08
    -.625026034843D-10  .100000000000D+01  .189300000000D+04  .000000000000D+00
     .240000000000D+01  .000000000000D+00 -.200234353542D-07  .630000000000D+02
     .410406000000D+06  .400000000000D+01
 3 16  4 21 20  0  0.0 -.499342568219D-04 -.397903932026D-11  .000000000000D+00
     .109000000000D+03 -.392500000000D+02  .429446459597D-08  .311506584094D+00
    -.195018947124D-05  .233870814554D-03  .100191682577D-04  .515372298813D+04
     .417600000000D+06 -.689178705215D-07 -.492566454193D+00  .109896063805D-06
     .959498237307D+00  .186593750000D+03 -.231275501622D+01 -.785961309872D-08
    -.378944355982D-09  .100000000000D+01  .189300000000D+04  .000000000000D+00
     .340000000000D+01  .000000000000D+00  .186264514923D-08  .109000000000D+03
     .410406000000D+06  .400000000000D+01
 5 16  4 21 20  0  0.0 -.127041246742D-03  .318323145621D-11  .000000000000D+00
     .180000000000D+02 -.348750000000D+02  .467555189836D-08  .155407300072D+01
    -.177323818207D-05  .458628532942D-02  .100005418062D-04  .515377719879D+04
     .417600000000D+06 -.260770320892D-07 -.503981273346D+00  .242143869400D-07
     .946570187396D+00  .180750000000D+03  .458191086046D+00 -.808569394447D-08
    -.493949146393D-09  .100000000000D+01  .189300000000D+04  .000000000000D+00
     .240000000000D+01  .000000000000D+00 -.107102096081D-07  .180000000000D+02
     .410406000000D+06  .400000000000D+01
 6 16  4 21 20  0  0.0  .179143156856D-03  .557065504836D-11  .000000000000D+00
     .680000000000D+02  .625000000000D-01  .484663045304D-08 -.915890360978D+00
     .279396772385D-07  .437043956481D-03  .390596687794D-05  .515366802406D+04
     .417600000000D+06  .465661287308D-07 -.154263697949D+01  .353902578354D-07
     .963534328809D+00  .307062500000D+03 -.152203911195D+01 -.831856078716D-08
    -.346443002170D-10  .100000000000D+01  .189300000000D+04  .000000000000D+00
     .240000000000D+01  .000000000000D+00  .419095158577D-08  .680000000000D+02
     .410406000000D+06  .400000000000D+01
 7 16  4 21 20  0  0.0  .458848662674D-03 -.204636307899D-11  .000000000000D+00
     .440000000000D+02 -.459375000000D+01  .485770234280D-08 -.206729492046D+01
    -.461935997009D-06  .927804165985D-02  .195950269699D-05  .515365403175D+04
     .417600000000D+06  .158324837685D-06  .162505754123D+01 -.122934579849D-06
     .966421587818D+00  .344843750000D+03 -.268139724835D+01 -.840820737844D-08
     .155720772109D-09  .100000000000D+01  .189300000000D+04  .000000000000D+00
     .340000000000D+01  .000000000000D+00 -.111758708954D-07  .440000000000D+02
     .410406000000D+06  .400000000000D+01
 8 16  4 21 20  0  0.0 -.322675332427D-04 -.147792889038D-11  .000000000000D+00
     .108000000000D+03  .250000000000D+02  .438125392538D-08  .173422714458D+01
     .126101076603D-05  .181353231892D-02  .100228935480D-04  .515367953491D+04
     .417600000000D+06  .130385160446D-07 -.259446748448D+01 -.502914190292D-07
     .963047403841D+00  .181750000000D+03 -.117939548249D+01 -.788425698238D-08
     .282868925483D-09  .100000000000D+01  .189300000000D+04  .000000000000D+00
     .240000000000D+01  .000000000000D+00  .465661287308D-08  .108000000000D+03
     .410406000000D+06  .400000000000D+01
 9 16  4 21 20  0  0.0  .114407390356D-03  .738964445191D-11  .000000000000D+00
     .350000000000D+02  .904687500000D+02  .443375611231D-08  .569931375861D+00
     .474043190479D-05  .621151179075D-03  .888295471668D-05  .515360332489D+04
     .417600000000D+06 -.428408384323D-07  .546738356019D+00 -.745058059692D-08
     .955654447849D+00  .202031250000D+03  .211032178570D+01 -.806640742682D-08
     .406088343781D-09  .100000000000D+01  .189300000000D+04  .000000000000D+00
     .240000000000D+01  .000000000000D+00  .139698386192D-08  .350000000000D+02
     .410406000000D+06  .400000000000D+01
10 16  4 21 20  0  0.0 -.384822487831D-05 -.954969436862D-11  .000000000000D+00
     .109000000000D+03 -.377187500000D+02  .436339603867D-08  .262523064895D+01
    -.183098018169D-05  .140361988451D-02  .105313956738D-04  .515368730736D+04
     .417600000000D+06  .372529029846D-08 -.496604598169D+00 -.558793544769D-07
     .959741523510D+00  .174468750000D+03 -.274696269265D+01 -.793033033009D-08
    -.440732643998D-09  .100000000000D+01  .189300000000D+04  .000000000000D+00
     .340000000000D+01  .000000000000D+00  .232830643654D-08  .109000000000D+03
     .410406000000D+06  .400000000000D+01
11 16  4 21 20  0  0.0 -.642466824502D-03 -.295585778076D-11  .000000000000D+00
     .940000000000D+02  .477500000000D+02  .615704217981D-08 -.194835372507D+01
     .265426933765D-05  .162822030252D-01  .395812094212D-05  .515365524292D+04
     .417600000000D+06  .294297933578D-06 -.190884087829D+01  .214204192162D-06
     .895959579696D+00  .266531250000D+03  .151678577167D+01 -.877357974053D-08
     .225723688012D-09  .100000000000D+01  .189300000000D+04  .000000000000D+00
     .240000000000D+01  .000000000000D+00 -.121071934700D-07  .940000000000D+02
     .410406000000D+06  .400000000000D+01
12 16  4 21 20  0  0.0  .377121381462D-03  .136424205266D-11  .000000000000D+00
     .520000000000D+02 -.971562500000D+02  .377837167006D-08 -.257387671209D+01
    -.499002635479D-05  .610314158257D-02  .103786587715D-04  .515375425720D+04
     .417600000000D+06  .122934579849D-06  .270068177972D+01 -.160187482834D-06
     .990503308450D+00  .190812500000D+03  .720240331964D+00 -.765710466343D-08
    -.321799118511D-09  .100000000000D+01  .189300000000D+04  .000000000000D+00
     .240000000000D+01  .000000000000D+00 -.125728547573D-07  .520000000000D+02
     .410406000000D+06  .400000000000D+01
13 16  4 21 20  0  0.0 -.125463120639D-04 -.272848410532D-11  .000000000000D+00
     .590000000000D+02  .104062500000D+03  .421838999859D-08 -.112806828192D+01
     .535510480404D-05  .450714817271D-02  .850111246109D-05  .515368673897D+04
     .417600000000D+06 -.409781932831D-07  .666888827282D+00  .279396772385D-07
     .971994779050D+00  .226000000000D+03  .199247934859D+01 -.801354808216D-08
     .484305887570D-09  .100000000000D+01  .189300000000D+04  .000000000000D+00
     .240000000000D+01  .000000000000D+00 -.111758708954D-07  .590000000000D+02
     .410406000000D+06  .400000000000D+01
14 16  4 21 20  0  0.0 -.964431092143D-05 -.216004991671D-11  .000000000000D+00
     .350000000000D+02  .100937500000D+03  .435196699118D-08  .651662967555D+00
     .512599945068D-05  .849162752274D-02  .912696123123D-05  .515401099014D+04
     .417600000000D+06 -.875443220139D-07  .630076926650D+00  .204890966415D-07
     .964511152858D+00  .202843750000D+03 -.196442796757D+01 -.818426947910D-08
     .403588239642D-09  .100000000000D+01  .189300000000D+04  .000000000000D+00
     .240000000000D+01  .000000000000D+00 -.931322574615D-08  .350000000000D+02
     .410406000000D+06  .400000000000D+01
15 16  4 21 20  0  0.0 -.307508744299D-03 -.170530256582D-11  .000000000000D+00
     .650000000000D+02  .997812500000D+02  .501556606132D-08 -.770642042277D-01
     .532902777195D-05  .810568558518D-02  .948645174503D-05  .515358417892D+04
     .417600000000D+06  .115483999252D-06  .495066876700D+00  .838190317154D-07
     .931422228057D+00  .181406250000D+03  .480667704665D+00 -.843892294359D-08
     .382158775590D-09  .100000000000D+01  .189300000000D+04  .000000000000D+00
     .240000000000D+01  .000000000000D+00 -.107102096081D-07  .650000000000D+02
     .410406000000D+06  .400000000000D+01
16 16  4 21 20  0  0.0 -.229161232710D-04  .272848410532D-11  .000000000000D+00
     .930000000000D+02 -.954375000000D+02  .384230290448D-08  .166889433645D+01
    -.466033816338D-05  .876126228832D-02  .102724879980D-04  .515374784470D+04
     .417600000000D+06 -.763684511185D-07  .271944288924D+01  .147148966789D-06
     .991029461566D+00  .201281250000D+03  .365885752153D+00 -.771710716277D-08
    -.408945605655D-09  .100000000000D+01  .189300000000D+04  .000000000000D+00
     .340000000000D+01  .000000000000D+00 -.107102096081D-07  .930000000000D+02
     .410406000000D+06  .400000000000D+01
